[{"OBJECT_NAME":"CARTOSAT-2F","OBJECT_ID":"2018-004A","EPOCH":"2026-03-09T22:50:21.052320","MEAN_MOTION":15.19266774,"ECCENTRICITY":8.279e-5,"INCLINATION":97.4159,"RA_OF_ASC_NODE":130.1064,"ARG_OF_PERICENTER":205.5127,"MEAN_ANOMALY":154.6067,"EPHEMERIS_TYPE":0,"CLASSIFICATION_TYPE":"U","NORAD_CAT_ID":43111,"ELEMENT_SET_NO":999,"REV_AT_EPOCH":45226,"BSTAR":0.00021023893,"MEAN_MOTION_DOT":4.366e-5,"MEAN_MOTION_DDOT":0},{"OBJECT_NAME":"YAOGAN-39 04C","OBJECT_ID":"2023-163E","EPOCH":"2026-03-09T23:09:59.754816","MEAN_MOTION":15.16776938,"ECCENTRICITY":0.00075996,"INCLINATION":34.9897,"RA_OF_ASC_NODE":267.2485,"ARG_OF_PERICENTER":234.7025,"MEAN_ANOMALY":125.2977,"EPHEMERIS_TYPE":0,"CLASSIFICATION_TYPE":"U","NORAD_CAT_ID":58145,"ELEMENT_SET_NO":999,"REV_AT_EPOCH":13224,"BSTAR":0.00030771871,"MEAN_MOTION_DOT":6.157e-5,"MEAN_MOTION_DDOT":0}]
